start=new Date('2021-08-28T00:00:00.000Z').valueOf();
sats=[{"NORAD_CAT_ID":"47569","MEAN_MOTION":"15.06390330","REV_AT_EPOCH":"3143","OBJECT_NAME":"STARLINK-1968","CLASSIFICATION_TYPE":"U","TLE_LINE2":"2 47569  53.0740 245.8422 0009196  40.0898 320.0768 15.06390330 31430","BSTAR":"0.00003164200000","RCS_SIZE":"LARGE","FILE":"3104038","PERIAPSIS":"540.875","EPHEMERIS_TYPE":"0","CENTER_NAME":"EARTH","LAUNCH_DATE":"2021-02-04","MEAN_MOTION_DDOT":"0.0000000000000","DECAY_DATE":null,"ECCENTRICITY":"0.00091960","PERIOD":"95.593","SEMIMAJOR_AXIS":"6925.378","ARG_OF_PERICENTER":"40.0898","MEAN_ANOMALY":"320.0768","ELEMENT_SET_NO":"999","MEAN_MOTION_DOT":"0.00000187","RA_OF_ASC_NODE":"245.8422","REF_FRAME":"TEME","COUNTRY_CODE":"US","OBJECT_TYPE":"PAYLOAD","SITE":"AFETR","GP_ID":"183557118","TLE_LINE1":"1 47569U 21009X   21239.75139736  .00000187  00000-0  31642-4 0  9997","MEAN_ELEMENT_THEORY":"SGP4","OBJECT_ID":"2021-009X","TIME_SYSTEM":"UTC","APOAPSIS":"553.612","INCLINATION":"53.0740","EPOCH":"2021-08-27T18:02:00.731904"},{"LAUNCH_DATE":"2021-02-04","RCS_SIZE":"LARGE","FILE":"3103885","PERIAPSIS":"546.727","CENTER_NAME":"EARTH","EPHEMERIS_TYPE":"0","TLE_LINE2":"2 47570  53.0549 233.1594 0000732  58.6835 301.4225 15.06393204 31560","BSTAR":"0.00007016800000","ECCENTRICITY":"0.00007320","DECAY_DATE":null,"MEAN_MOTION_DDOT":"0.0000000000000","REV_AT_EPOCH":"3156","NORAD_CAT_ID":"47570","MEAN_MOTION":"15.06393204","CLASSIFICATION_TYPE":"U","OBJECT_NAME":"STARLINK-1969","OBJECT_TYPE":"PAYLOAD","SITE":"AFETR","COUNTRY_CODE":"US","INCLINATION":"53.0549","APOAPSIS":"547.741","EPOCH":"2021-08-27T06:06:07.854048","MEAN_ELEMENT_THEORY":"SGP4","OBJECT_ID":"2021-009Y","TIME_SYSTEM":"UTC","GP_ID":"183530602","TLE_LINE1":"1 47570U 21009Y   21239.25425757  .00000764  00000-0  70168-4 0  9992","MEAN_ANOMALY":"301.4225","ELEMENT_SET_NO":"999","PERIOD":"95.593","ARG_OF_PERICENTER":"58.6835","SEMIMAJOR_AXIS":"6925.369","MEAN_MOTION_DOT":"0.00000764","RA_OF_ASC_NODE":"233.1594","REF_FRAME":"TEME"},{"ECCENTRICITY":"0.00006530","DECAY_DATE":null,"MEAN_MOTION_DDOT":"0.0000000000000","LAUNCH_DATE":"2021-02-04","RCS_SIZE":"LARGE","FILE":"3104038","CENTER_NAME":"EARTH","PERIAPSIS":"546.770","EPHEMERIS_TYPE":"0","BSTAR":"-0.00003488100000","TLE_LINE2":"2 47571  53.0549 241.0205 0000653 352.5621   7.5358 15.06397043 31497","CLASSIFICATION_TYPE":"U","OBJECT_NAME":"STARLINK-1970","REV_AT_EPOCH":"3149","MEAN_MOTION":"15.06397043","NORAD_CAT_ID":"47571","EPOCH":"2021-08-27T17:29:28.875552","INCLINATION":"53.0549","APOAPSIS":"547.675","OBJECT_ID":"2021-009Z","TIME_SYSTEM":"UTC","MEAN_ELEMENT_THEORY":"SGP4","TLE_LINE1":"1 47571U 21009Z   21239.72880643 -.00000801  00000-0 -34881-4 0  9990","GP_ID":"183556632","SITE":"AFETR","OBJECT_TYPE":"PAYLOAD","COUNTRY_CODE":"US","RA_OF_ASC_NODE":"241.0205","REF_FRAME":"TEME","MEAN_MOTION_DOT":"-0.00000801","MEAN_ANOMALY":"7.5358","ELEMENT_SET_NO":"999","SEMIMAJOR_AXIS":"6925.358","ARG_OF_PERICENTER":"352.5621","PERIOD":"95.592"},{"SITE":"AFETR","OBJECT_TYPE":"PAYLOAD","COUNTRY_CODE":"US","EPOCH":"2021-08-27T12:16:19.953984","INCLINATION":"53.0537","APOAPSIS":"547.658","TLE_LINE1":"1 47572U 21009AA  21239.51134206  .00000492  00000-0  51934-4 0  9997","GP_ID":"183529602","TIME_SYSTEM":"UTC","OBJECT_ID":"2021-009AA","MEAN_ELEMENT_THEORY":"SGP4","MEAN_ANOMALY":"312.3525","ELEMENT_SET_NO":"999","ARG_OF_PERICENTER":"47.7513","SEMIMAJOR_AXIS":"6925.395","PERIOD":"95.593","RA_OF_ASC_NODE":"241.9883","REF_FRAME":"TEME","MEAN_MOTION_DOT":"0.00000492","LAUNCH_DATE":"2021-02-04","BSTAR":"0.00005193400000","TLE_LINE2":"2 47572  53.0537 241.9883 0000574  47.7513 312.3525 15.06384770 31464","CENTER_NAME":"EARTH","FILE":"3103885","RCS_SIZE":"LARGE","PERIAPSIS":"546.863","EPHEMERIS_TYPE":"0","ECCENTRICITY":"0.00005740","MEAN_MOTION_DDOT":"0.0000000000000","DECAY_DATE":null,"MEAN_MOTION":"15.06384770","NORAD_CAT_ID":"47572","REV_AT_EPOCH":"3146","CLASSIFICATION_TYPE":"U","OBJECT_NAME":"STARLINK-1971"},{"CLASSIFICATION_TYPE":"U","OBJECT_NAME":"STARLINK-1975","MEAN_MOTION":"15.06392152","NORAD_CAT_ID":"47573","REV_AT_EPOCH":"3142","ECCENTRICITY":"0.00004510","MEAN_MOTION_DDOT":"0.0000000000000","DECAY_DATE":null,"LAUNCH_DATE":"2021-02-04","BSTAR":"0.00005475300000","TLE_LINE2":"2 47573  53.0505 243.0083 0000451  30.7537 329.3478 15.06392152 31421","RCS_SIZE":"LARGE","FILE":"3103885","PERIAPSIS":"546.925","EPHEMERIS_TYPE":"0","CENTER_NAME":"EARTH","RA_OF_ASC_NODE":"243.0083","REF_FRAME":"TEME","MEAN_MOTION_DOT":"0.00000534","ELEMENT_SET_NO":"999","MEAN_ANOMALY":"329.3478","SEMIMAJOR_AXIS":"6925.373","ARG_OF_PERICENTER":"30.7537","PERIOD":"95.593","EPOCH":"2021-08-27T06:57:52.738272","APOAPSIS":"547.550","INCLINATION":"53.0505","TLE_LINE1":"1 47573U 21009AB  21239.29019373  .00000534  00000-0  54753-4 0  9999","GP_ID":"183529852","OBJECT_ID":"2021-009AB","TIME_SYSTEM":"UTC","MEAN_ELEMENT_THEORY":"SGP4","SITE":"AFETR","OBJECT_TYPE":"PAYLOAD","COUNTRY_CODE":"US"},{"TIME_SYSTEM":"UTC","OBJECT_ID":"2021-009AC","MEAN_ELEMENT_THEORY":"SGP4","TLE_LINE1":"1 47574U 21009AC  21239.50488576  .00000463  00000-0  49947-4 0  9999","GP_ID":"183531102","EPOCH":"2021-08-27T12:07:02.129664","INCLINATION":"53.0549","APOAPSIS":"547.811","COUNTRY_CODE":"US","SITE":"AFETR","OBJECT_TYPE":"PAYLOAD","RA_OF_ASC_NODE":"272.0176","REF_FRAME":"TEME","MEAN_MOTION_DOT":"0.00000463","SEMIMAJOR_AXIS":"6925.352","ARG_OF_PERICENTER":"87.5091","PERIOD":"95.592","MEAN_ANOMALY":"272.5996","ELEMENT_SET_NO":"999","DECAY_DATE":null,"MEAN_MOTION_DDOT":"0.0000000000000","ECCENTRICITY":"0.00008580","PERIAPSIS":"546.623","FILE":"3103885","RCS_SIZE":"LARGE","EPHEMERIS_TYPE":"0","CENTER_NAME":"EARTH","BSTAR":"0.00004994700000","TLE_LINE2":"2 47574  53.0549 272.0176 0000858  87.5091 272.5996 15.06398788 31033","LAUNCH_DATE":"2021-02-04","OBJECT_NAME":"STARLINK-1976","CLASSIFICATION_TYPE":"U","REV_AT_EPOCH":"3103","MEAN_MOTION":"15.06398788","NORAD_CAT_ID":"47574"},{"NORAD_CAT_ID":"47575","MEAN_MOTION":"15.06398168","REV_AT_EPOCH":"3103","CLASSIFICATION_TYPE":"U","OBJECT_NAME":"STARLINK-1977","LAUNCH_DATE":"2021-02-04","TLE_LINE2":"2 47575  53.0543 272.0743 0000627  75.7823 284.3235 15.06398168 31033","BSTAR":"0.00006187200000","FILE":"3103885","CENTER_NAME":"EARTH","RCS_SIZE":"LARGE","PERIAPSIS":"546.785","EPHEMERIS_TYPE":"0","ECCENTRICITY":"0.00006270","MEAN_MOTION_DDOT":"0.0000000000000","DECAY_DATE":null,"MEAN_ANOMALY":"284.3235","ELEMENT_SET_NO":"999","PERIOD":"95.592","SEMIMAJOR_AXIS":"6925.354","ARG_OF_PERICENTER":"75.7823","MEAN_MOTION_DOT":"0.00000641","RA_OF_ASC_NODE":"272.0743","REF_FRAME":"TEME","OBJECT_TYPE":"PAYLOAD","SITE":"AFETR","COUNTRY_CODE":"US","INCLINATION":"53.0543","APOAPSIS":"547.653","EPOCH":"2021-08-27T11:51:07.694784","GP_ID":"183530827","TLE_LINE1":"1 47575U 21009AD  21239.49383906  .00000641  00000-0  61872-4 0  9998","MEAN_ELEMENT_THEORY":"SGP4","OBJECT_ID":"2021-009AD","TIME_SYSTEM":"UTC"},{"COUNTRY_CODE":"US","OBJECT_TYPE":"PAYLOAD","SITE":"AFETR","MEAN_ELEMENT_THEORY":"SGP4","TIME_SYSTEM":"UTC","OBJECT_ID":"2021-009AE","GP_ID":"183556882","TLE_LINE1":"1 47576U 21009AE  21239.79239028  .00000659  00000-0  63135-4 0  9990","APOAPSIS":"548.090","INCLINATION":"53.0562","EPOCH":"2021-08-27T19:01:02.520192","PERIOD":"95.592","SEMIMAJOR_AXIS":"6925.339","ARG_OF_PERICENTER":"56.1805","MEAN_ANOMALY":"303.9306","ELEMENT_SET_NO":"999","MEAN_MOTION_DOT":"0.00000659","RA_OF_ASC_NODE":"230.7429","REF_FRAME":"TEME","FILE":"3104038","PERIAPSIS":"546.318","RCS_SIZE":"LARGE","CENTER_NAME":"EARTH","EPHEMERIS_TYPE":"0","TLE_LINE2":"2 47576  53.0562 230.7429 0001279  56.1805 303.9306 15.06403191 31641","BSTAR":"0.00006313500000","LAUNCH_DATE":"2021-02-04","DECAY_DATE":null,"MEAN_MOTION_DDOT":"0.0000000000000","ECCENTRICITY":"0.00012790","REV_AT_EPOCH":"3164","NORAD_CAT_ID":"47576","MEAN_MOTION":"15.06403191","OBJECT_NAME":"STARLINK-1978","CLASSIFICATION_TYPE":"U"},{"NORAD_CAT_ID":"47577","MEAN_MOTION":"15.06387792","REV_AT_EPOCH":"3138","CLASSIFICATION_TYPE":"U","OBJECT_NAME":"STARLINK-1979","LAUNCH_DATE":"2021-02-04","TLE_LINE2":"2 47577  53.0611 247.3287 0000458  32.6339 327.4678 15.06387792 31384","BSTAR":"0.00003935800000","RCS_SIZE":"LARGE","FILE":"3103885","PERIAPSIS":"546.934","EPHEMERIS_TYPE":"0","CENTER_NAME":"EARTH","ECCENTRICITY":"0.00004580","MEAN_MOTION_DDOT":"0.0000000000000","DECAY_DATE":null,"ELEMENT_SET_NO":"999","MEAN_ANOMALY":"327.4678","PERIOD":"95.593","SEMIMAJOR_AXIS":"6925.386","ARG_OF_PERICENTER":"32.6339","MEAN_MOTION_DOT":"0.00000305","RA_OF_ASC_NODE":"247.3287","REF_FRAME":"TEME","OBJECT_TYPE":"PAYLOAD","SITE":"AFETR","COUNTRY_CODE":"US","APOAPSIS":"547.568","INCLINATION":"53.0611","EPOCH":"2021-08-27T10:26:53.272320","GP_ID":"183530352","TLE_LINE1":"1 47577U 21009AF  21239.43533880  .00000305  00000-0  39358-4 0  9993","MEAN_ELEMENT_THEORY":"SGP4","OBJECT_ID":"2021-009AF","TIME_SYSTEM":"UTC"},{"MEAN_MOTION_DDOT":"0.0000000000000","DECAY_DATE":null,"ECCENTRICITY":"0.00002520","BSTAR":"-0.00006880400000","TLE_LINE2":"2 47578  53.0539 250.8725 0000252  31.2097 328.8907 15.06394805 31358","CENTER_NAME":"EARTH","FILE":"3104038","RCS_SIZE":"LARGE","PERIAPSIS":"547.055","EPHEMERIS_TYPE":"0","LAUNCH_DATE":"2021-02-04","OBJECT_NAME":"STARLINK-1980","CLASSIFICATION_TYPE":"U","MEAN_MOTION":"15.06394805","NORAD_CAT_ID":"47578","REV_AT_EPOCH":"3135","TLE_LINE1":"1 47578U 21009AG  21239.76105274 -.00001305  00000-0 -68804-4 0  9993","GP_ID":"183557866","TIME_SYSTEM":"UTC","OBJECT_ID":"2021-009AG","MEAN_ELEMENT_THEORY":"SGP4","EPOCH":"2021-08-27T18:15:54.956736","APOAPSIS":"547.404","INCLINATION":"53.0539","COUNTRY_CODE":"US","SITE":"AFETR","OBJECT_TYPE":"PAYLOAD","RA_OF_ASC_NODE":"250.8725","REF_FRAME":"TEME","MEAN_MOTION_DOT":"-0.00001305","SEMIMAJOR_AXIS":"6925.364","ARG_OF_PERICENTER":"31.2097","PERIOD":"95.592","ELEMENT_SET_NO":"999","MEAN_ANOMALY":"328.8907"}];
